{
  "norad_id": 67712,
  "name": "STARLINK-36705",
  "history": [
    {
      "epoch": "2026-03-28T22:00:01.999584Z",
      "apogee_km": 445.6687133905916,
      "perigee_km": 443.4157282582919,
      "latitude_deg": 81.94044407293643,
      "longitude_deg": -19.923854842750433,
      "height_km": 456.96987917155724,
      "semi_major_axis_km": 6822.6792208244415,
      "eccentricity": 0.00016511,
      "inclination_deg": 97.285,
      "raan_deg": 200.2842,
      "arg_perigee_deg": 71.6274,
      "mean_anomaly_deg": 14.8127,
      "mean_motion_rev_day": 15.40530613
    },
    {
      "epoch": "2026-03-29T04:00:01.999584Z",
      "apogee_km": 448.9161714338952,
      "perigee_km": 446.7400537559988,
      "latitude_deg": 31.303996699796258,
      "longitude_deg": -50.48478926588327,
      "height_km": 451.19903726864754,
      "semi_major_axis_km": 6825.965112594947,
      "eccentricity": 0.0001594,
      "inclination_deg": 97.2845,
      "raan_deg": 200.5337,
      "arg_perigee_deg": 77.3894,
      "mean_anomaly_deg": 314.1513,
      "mean_motion_rev_day": 15.39418373
    }
  ]
}